CCSDS_OMM_VERS = 2.0
CREATION_DATE  = 
ORIGINATOR     = 

OBJECT_NAME    = RAISE-4
OBJECT_ID      = 2025-297B
CENTER_NAME    = EARTH
REF_FRAME      = TEME
TIME_SYSTEM    = UTC
MEAN_ELEMENT_THEORY = SGP/SGP4

EPOCH          = 2026-01-03T05:01:02.522208
MEAN_MOTION    = 15.07377641
ECCENTRICITY   = .00113949
INCLINATION    = 97.4865
RA_OF_ASC_NODE = 155.1815
ARG_OF_PERICENTER = 239.7997
MEAN_ANOMALY   = 120.2103

EPHEMERIS_TYPE = 0
CLASSIFICATION_TYPE = U
NORAD_CAT_ID   = 67073
ELEMENT_SET_NO = 999
REV_AT_EPOCH   = 302
BSTAR          = .62032092E-3
MEAN_MOTION_DOT = .9341E-4
MEAN_MOTION_DDOT = 0

CCSDS_OMM_VERS = 2.0
CREATION_DATE  = 
ORIGINATOR     = 

OBJECT_NAME    = ELECTRON KICK STAGE R/B
OBJECT_ID      = 2025-297C
CENTER_NAME    = EARTH
REF_FRAME      = TEME
TIME_SYSTEM    = UTC
MEAN_ELEMENT_THEORY = SGP/SGP4

EPOCH          = 2026-01-02T23:39:55.940832
MEAN_MOTION    = 15.67829452
ECCENTRICITY   = .0164854
INCLINATION    = 97.4780
RA_OF_ASC_NODE = 156.5752
ARG_OF_PERICENTER = 192.3102
MEAN_ANOMALY   = 167.4112

EPHEMERIS_TYPE = 0
CLASSIFICATION_TYPE = U
NORAD_CAT_ID   = 67074
ELEMENT_SET_NO = 999
REV_AT_EPOCH   = 309
BSTAR          = .22313223E-2
MEAN_MOTION_DOT = .533737E-2
MEAN_MOTION_DDOT = .87246062E-4

CCSDS_OMM_VERS = 2.0
CREATION_DATE  = 
ORIGINATOR     = 

OBJECT_NAME    = STARLINK-36230
OBJECT_ID      = 2025-298A
CENTER_NAME    = EARTH
REF_FRAME      = TEME
TIME_SYSTEM    = UTC
MEAN_ELEMENT_THEORY = SGP/SGP4

EPOCH          = 2026-01-03T06:00:02.000160
MEAN_MOTION    = 15.52625100
ECCENTRICITY   = .00036021
INCLINATION    = 69.9990
RA_OF_ASC_NODE = 189.3142
ARG_OF_PERICENTER = 275.9945
MEAN_ANOMALY   = 285.7950

EPHEMERIS_TYPE = 0
CLASSIFICATION_TYPE = U
NORAD_CAT_ID   = 67075
ELEMENT_SET_NO = 999
REV_AT_EPOCH   = 443
BSTAR          = -.37443167E-2
MEAN_MOTION_DOT = -.225005E-2
MEAN_MOTION_DDOT = 0

CCSDS_OMM_VERS = 2.0
CREATION_DATE  = 
ORIGINATOR     = 

OBJECT_NAME    = STARLINK-36240
OBJECT_ID      = 2025-298B
CENTER_NAME    = EARTH
REF_FRAME      = TEME
TIME_SYSTEM    = UTC
MEAN_ELEMENT_THEORY = SGP/SGP4

EPOCH          = 2026-01-03T06:00:02.000160
MEAN_MOTION    = 15.52585932
ECCENTRICITY   = .00034105
INCLINATION    = 69.9991
RA_OF_ASC_NODE = 189.3128
ARG_OF_PERICENTER = 268.7696
MEAN_ANOMALY   = 294.9330

EPHEMERIS_TYPE = 0
CLASSIFICATION_TYPE = U
NORAD_CAT_ID   = 67076
ELEMENT_SET_NO = 999
REV_AT_EPOCH   = 443
BSTAR          = -.21057637E-2
MEAN_MOTION_DOT = -.127966E-2
MEAN_MOTION_DDOT = 0

CCSDS_OMM_VERS = 2.0
CREATION_DATE  = 
ORIGINATOR     = 

OBJECT_NAME    = STARLINK-36243
OBJECT_ID      = 2025-298C
CENTER_NAME    = EARTH
REF_FRAME      = TEME
TIME_SYSTEM    = UTC
MEAN_ELEMENT_THEORY = SGP/SGP4

EPOCH          = 2026-01-03T06:00:02.000160
MEAN_MOTION    = 15.52584897
ECCENTRICITY   = .00032498
INCLINATION    = 69.9992
RA_OF_ASC_NODE = 189.3101
ARG_OF_PERICENTER = 267.7568
MEAN_ANOMALY   = 297.8659

EPHEMERIS_TYPE = 0
CLASSIFICATION_TYPE = U
NORAD_CAT_ID   = 67077
ELEMENT_SET_NO = 999
REV_AT_EPOCH   = 443
BSTAR          = -.2143632E-2
MEAN_MOTION_DOT = -.130219E-2
MEAN_MOTION_DDOT = 0

CCSDS_OMM_VERS = 2.0
CREATION_DATE  = 
ORIGINATOR     = 

OBJECT_NAME    = STARLINK-36236
OBJECT_ID      = 2025-298D
CENTER_NAME    = EARTH
REF_FRAME      = TEME
TIME_SYSTEM    = UTC
MEAN_ELEMENT_THEORY = SGP/SGP4

EPOCH          = 2026-01-03T06:00:02.000160
MEAN_MOTION    = 15.52584416
ECCENTRICITY   = .00031748
INCLINATION    = 69.9992
RA_OF_ASC_NODE = 189.3081
ARG_OF_PERICENTER = 271.0462
MEAN_ANOMALY   = 296.4937

EPHEMERIS_TYPE = 0
CLASSIFICATION_TYPE = U
NORAD_CAT_ID   = 67078
ELEMENT_SET_NO = 999
REV_AT_EPOCH   = 443
BSTAR          = -.20704479E-2
MEAN_MOTION_DOT = -.125843E-2
MEAN_MOTION_DDOT = 0

CCSDS_OMM_VERS = 2.0
CREATION_DATE  = 
ORIGINATOR     = 

OBJECT_NAME    = STARLINK-36159
OBJECT_ID      = 2025-298E
CENTER_NAME    = EARTH
REF_FRAME      = TEME
TIME_SYSTEM    = UTC
MEAN_ELEMENT_THEORY = SGP/SGP4

EPOCH          = 2026-01-03T06:00:02.000160
MEAN_MOTION    = 15.42719457
ECCENTRICITY   = .00035574
INCLINATION    = 69.9992
RA_OF_ASC_NODE = 189.4331
ARG_OF_PERICENTER = 265.8812
MEAN_ANOMALY   = 193.5844

EPHEMERIS_TYPE = 0
CLASSIFICATION_TYPE = U
NORAD_CAT_ID   = 67079
ELEMENT_SET_NO = 999
REV_AT_EPOCH   = 443
BSTAR          = -.14861294E-2
MEAN_MOTION_DOT = -.64709E-3
MEAN_MOTION_DDOT = 0

CCSDS_OMM_VERS = 2.0
CREATION_DATE  = 
ORIGINATOR     = 

OBJECT_NAME    = STARLINK-36158
OBJECT_ID      = 2025-298F
CENTER_NAME    = EARTH
REF_FRAME      = TEME
TIME_SYSTEM    = UTC
MEAN_ELEMENT_THEORY = SGP/SGP4

EPOCH          = 2026-01-03T06:00:02.000160
MEAN_MOTION    = 15.52585624
ECCENTRICITY   = .00032928
INCLINATION    = 69.9991
RA_OF_ASC_NODE = 189.3034
ARG_OF_PERICENTER = 269.8899
MEAN_ANOMALY   = 301.4756

EPHEMERIS_TYPE = 0
CLASSIFICATION_TYPE = U
NORAD_CAT_ID   = 67080
ELEMENT_SET_NO = 999
REV_AT_EPOCH   = 437
BSTAR          = -.20535156E-2
MEAN_MOTION_DOT = -.124839E-2
MEAN_MOTION_DDOT = 0

CCSDS_OMM_VERS = 2.0
CREATION_DATE  = 
ORIGINATOR     = 

OBJECT_NAME    = STARLINK-35864
OBJECT_ID      = 2025-298G
CENTER_NAME    = EARTH
REF_FRAME      = TEME
TIME_SYSTEM    = UTC
MEAN_ELEMENT_THEORY = SGP/SGP4

EPOCH          = 2026-01-03T06:00:02.000160
MEAN_MOTION    = 15.52624693
ECCENTRICITY   = .00031619
INCLINATION    = 69.9992
RA_OF_ASC_NODE = 189.2998
ARG_OF_PERICENTER = 271.4967
MEAN_ANOMALY   = 301.7904

EPHEMERIS_TYPE = 0
CLASSIFICATION_TYPE = U
NORAD_CAT_ID   = 67081
ELEMENT_SET_NO = 999
REV_AT_EPOCH   = 443
BSTAR          = -.37017167E-2
MEAN_MOTION_DOT = -.222492E-2
MEAN_MOTION_DDOT = 0

CCSDS_OMM_VERS = 2.0
CREATION_DATE  = 
ORIGINATOR     = 

OBJECT_NAME    = STARLINK-36035
OBJECT_ID      = 2025-298H
CENTER_NAME    = EARTH
REF_FRAME      = TEME
TIME_SYSTEM    = UTC
MEAN_ELEMENT_THEORY = SGP/SGP4

EPOCH          = 2026-01-03T06:00:02.000160
MEAN_MOTION    = 15.52956276
ECCENTRICITY   = .00031383
INCLINATION    = 69.9991
RA_OF_ASC_NODE = 189.2997
ARG_OF_PERICENTER = 264.1097
MEAN_ANOMALY   = 311.0365

EPHEMERIS_TYPE = 0
CLASSIFICATION_TYPE = U
NORAD_CAT_ID   = 67082
ELEMENT_SET_NO = 999
REV_AT_EPOCH   = 443
BSTAR          = -.25361499E-1
MEAN_MOTION_DOT = -.1421192E-1
MEAN_MOTION_DDOT = 0

CCSDS_OMM_VERS = 2.0
CREATION_DATE  = 
ORIGINATOR     = 

OBJECT_NAME    = STARLINK-36170
OBJECT_ID      = 2025-298J
CENTER_NAME    = EARTH
REF_FRAME      = TEME
TIME_SYSTEM    = UTC
MEAN_ELEMENT_THEORY = SGP/SGP4

EPOCH          = 2026-01-03T06:00:02.000160
MEAN_MOTION    = 15.52612753
ECCENTRICITY   = .00032437
INCLINATION    = 69.9990
RA_OF_ASC_NODE = 189.2953
ARG_OF_PERICENTER = 270.9218
MEAN_ANOMALY   = 306.2008

EPHEMERIS_TYPE = 0
CLASSIFICATION_TYPE = U
NORAD_CAT_ID   = 67083
ELEMENT_SET_NO = 999
REV_AT_EPOCH   = 443
BSTAR          = -.33448931E-2
MEAN_MOTION_DOT = -.201503E-2
MEAN_MOTION_DDOT = 0

CCSDS_OMM_VERS = 2.0
CREATION_DATE  = 
ORIGINATOR     = 

OBJECT_NAME    = STARLINK-36166
OBJECT_ID      = 2025-298K
CENTER_NAME    = EARTH
REF_FRAME      = TEME
TIME_SYSTEM    = UTC
MEAN_ELEMENT_THEORY = SGP/SGP4

EPOCH          = 2026-01-03T06:00:02.000160
MEAN_MOTION    = 15.52670344
ECCENTRICITY   = .00032541
INCLINATION    = 69.9989
RA_OF_ASC_NODE = 189.2930
ARG_OF_PERICENTER = 270.6684
MEAN_ANOMALY   = 308.3656

EPHEMERIS_TYPE = 0
CLASSIFICATION_TYPE = U
NORAD_CAT_ID   = 67084
ELEMENT_SET_NO = 999
REV_AT_EPOCH   = 437
BSTAR          = -.51626689E-2
MEAN_MOTION_DOT = -.30749E-2
MEAN_MOTION_DDOT = 0

