RAISE-4                 
1 67073U 25297B   26003.20905697  .00009341  00000+0  62032-3 0  9999
2 67073  97.4865 155.1815 0011394 239.7997 120.2103 15.07377641  3029
ELECTRON KICK STAGE R/B 
1 67074U 25297C   26002.98606413  .00533737  87246-4  22313-2 0  9998
2 67074  97.4780 156.5752 0164854 192.3102 167.4112 15.67829452  3091
STARLINK-36230          
1 67075U 25298A   26003.25002315 -.00225005  00000+0 -37443-2 0  9998
2 67075  69.9990 189.3142 0003602 275.9945 285.7950 15.52625100  4433
STARLINK-36240          
1 67076U 25298B   26003.25002315 -.00127966  00000+0 -21058-2 0  9991
2 67076  69.9991 189.3128 0003410 268.7696 294.9330 15.52585932  4431
STARLINK-36243          
1 67077U 25298C   26003.25002315 -.00130219  00000+0 -21436-2 0  9997
2 67077  69.9992 189.3101 0003249 267.7568 297.8659 15.52584897  4436
STARLINK-36236          
1 67078U 25298D   26003.25002315 -.00125843  00000+0 -20704-2 0  9992
2 67078  69.9992 189.3081 0003174 271.0462 296.4937 15.52584416  4433
STARLINK-36159          
1 67079U 25298E   26003.25002315 -.00064709  00000+0 -14861-2 0  9993
2 67079  69.9992 189.4331 0003557 265.8812 193.5844 15.42719457  4436
STARLINK-36158          
1 67080U 25298F   26003.25002315 -.00124839  00000+0 -20535-2 0  9991
2 67080  69.9991 189.3034 0003292 269.8899 301.4756 15.52585624  4374
STARLINK-35864          
1 67081U 25298G   26003.25002315 -.00222492  00000+0 -37017-2 0  9999
2 67081  69.9992 189.2998 0003161 271.4967 301.7904 15.52624693  4439
STARLINK-36035          
1 67082U 25298H   26003.25002315 -.01421192  00000+0 -25361-1 0  9997
2 67082  69.9991 189.2997 0003138 264.1097 311.0365 15.52956276  4435
STARLINK-36170          
1 67083U 25298J   26003.25002315 -.00201503  00000+0 -33449-2 0  9996
2 67083  69.9990 189.2953 0003243 270.9218 306.2008 15.52612753  4433
STARLINK-36166          
1 67084U 25298K   26003.25002315 -.00307490  00000+0 -51627-2 0  9997
2 67084  69.9989 189.2930 0003254 270.6684 308.3656 15.52670344  4378
